{
  "type": "FeatureCollection",
  "features": [
    {
      "type": "Feature",
      "properties": {
        "norad_id": 37238,
        "name": "INTELSAT 17 (IS-17)",
        "group": "intelsat",
        "lat": -0.0005067010746779671,
        "lon": 30.330222224675556,
        "alt_km": 35789.66715886915,
        "timestamp": "2025-12-18T15:47:10.888116+00:00",
        "meta_object_name": "INTELSAT 17 (IS-17)",
        "meta_object_id": "2010-065B",
        "meta_epoch": "2025-12-18T01:37:24.891744",
        "meta_mean_motion": 1.00270698,
        "meta_eccentricity": 0.00026517,
        "meta_inclination": 0.0059,
        "meta_ra_of_asc_node": 94.2104,
        "meta_arg_of_pericenter": 189.1543,
        "meta_mean_anomaly": 253.9267,
        "meta_ephemeris_type": 0,
        "meta_classification_type": "U",
        "meta_norad_cat_id": 37238,
        "meta_element_set_no": 999,
        "meta_rev_at_epoch": 5143,
        "meta_bstar": 0,
        "meta_mean_motion_dot": 2.4e-07,
        "meta_mean_motion_ddot": 0,
        "tle_line1": "1 37238U 10065B   25352.06764921  .00000024  00000+0  00000+0 0  9991",
        "tle_line2": "2 37238   0.0059  94.2104 0002651 189.1543 253.9267  1.00270698 51434"
      },
      "geometry": {
        "type": "Point",
        "coordinates": [
          30.330222224675556,
          -0.0005067010746779671
        ]
      }
    },
    {
      "type": "Feature",
      "properties": {
        "norad_id": 37392,
        "name": "INTELSAT 28 (IS-28)",
        "group": "intelsat",
        "lat": -0.6442445571168729,
        "lon": -67.37207262469843,
        "alt_km": 35772.04112532164,
        "timestamp": "2025-12-18T15:47:10.888128+00:00",
        "meta_object_name": "INTELSAT 28 (IS-28)",
        "meta_object_id": "2011-016A",
        "meta_epoch": "2025-12-18T01:09:35.057088",
        "meta_mean_motion": 1.0027065,
        "meta_eccentricity": 0.00036852,
        "meta_inclination": 1.3377,
        "meta_ra_of_asc_node": 84.9978,
        "meta_arg_of_pericenter": 185.8158,
        "meta_mean_anomaly": 161.8165,
        "meta_ephemeris_type": 0,
        "meta_classification_type": "U",
        "meta_norad_cat_id": 37392,
        "meta_element_set_no": 999,
        "meta_rev_at_epoch": 5146,
        "meta_bstar": 0,
        "meta_mean_motion_dot": -2.01e-06,
        "meta_mean_motion_ddot": 0,
        "tle_line1": "1 37392U 11016A   25352.04832242 -.00000201  00000+0  00000+0 0  9997",
        "tle_line2": "2 37392   1.3377  84.9978 0003685 185.8158 161.8165  1.00270650 51465"
      },
      "geometry": {
        "type": "Point",
        "coordinates": [
          -67.37207262469843,
          -0.6442445571168729
        ]
      }
    },
    {
      "type": "Feature",
      "properties": {
        "norad_id": 37834,
        "name": "INTELSAT 18 (IS-18)",
        "group": "intelsat",
        "lat": -0.007935438752211718,
        "lon": 144.28864858663857,
        "alt_km": 35791.01901949438,
        "timestamp": "2025-12-18T15:47:10.888140+00:00",
        "meta_object_name": "INTELSAT 18 (IS-18)",
        "meta_object_id": "2011-056A",
        "meta_epoch": "2025-12-17T21:01:51.288384",
        "meta_mean_motion": 1.00273019,
        "meta_eccentricity": 0.0001724,
        "meta_inclination": 0.0252,
        "meta_ra_of_asc_node": 286.8744,
        "meta_arg_of_pericenter": 354.6111,
        "meta_mean_anomaly": 300.7224,
        "meta_ephemeris_type": 0,
        "meta_classification_type": "U",
        "meta_norad_cat_id": 37834,
        "meta_element_set_no": 999,
        "meta_rev_at_epoch": 5199,
        "meta_bstar": 0,
        "meta_mean_motion_dot": 7.8e-07,
        "meta_mean_motion_ddot": 0,
        "tle_line1": "1 37834U 11056A   25351.87628806  .00000078  00000+0  00000+0 0  9992",
        "tle_line2": "2 37834   0.0252 286.8744 0001724 354.6111 300.7224  1.00273019 51995"
      },
      "geometry": {
        "type": "Point",
        "coordinates": [
          144.28864858663857,
          -0.007935438752211718
        ]
      }
    },
    {
      "type": "Feature",
      "properties": {
        "norad_id": 38098,
        "name": "INTELSAT 22 (IS-22)",
        "group": "intelsat",
        "lat": 0.0009043733037565683,
        "lon": 36.41252961886752,
        "alt_km": 35789.249071608785,
        "timestamp": "2025-12-18T15:47:10.888152+00:00",
        "meta_object_name": "INTELSAT 22 (IS-22)",
        "meta_object_id": "2012-011A",
        "meta_epoch": "2025-12-18T01:39:09.725184",
        "meta_mean_motion": 1.00269511,
        "meta_eccentricity": 0.00018825,
        "meta_inclination": 0.045,
        "meta_ra_of_asc_node": 57.0449,
        "meta_arg_of_pericenter": 230.9978,
        "meta_mean_anomaly": 255.7802,
        "meta_ephemeris_type": 0,
        "meta_classification_type": "U",
        "meta_norad_cat_id": 38098,
        "meta_element_set_no": 999,
        "meta_rev_at_epoch": 537,
        "meta_bstar": 0,
        "meta_mean_motion_dot": 0,
        "meta_mean_motion_ddot": 0,
        "tle_line1": "1 38098U 12011A   25352.06886256  .00000000  00000+0  00000+0 0  9999",
        "tle_line2": "2 38098   0.0450  57.0449 0001882 230.9978 255.7802  1.00269511  5374"
      },
      "geometry": {
        "type": "Point",
        "coordinates": [
          36.41252961886752,
          0.0009043733037565683
        ]
      }
    },
    {
      "type": "Feature",
      "properties": {
        "norad_id": 38356,
        "name": "INTELSAT 19 (IS-19)",
        "group": "intelsat",
        "lat": 0.017518914100362118,
        "lon": 130.29685824294836,
        "alt_km": 35797.157283971945,
        "timestamp": "2025-12-18T15:47:10.888165+00:00",
        "meta_object_name": "INTELSAT 19 (IS-19)",
        "meta_object_id": "2012-030A",
        "meta_epoch": "2025-12-18T02:59:38.609952",
        "meta_mean_motion": 1.00272137,
        "meta_eccentricity": 0.00031737,
        "meta_inclination": 0.0096,
        "meta_ra_of_asc_node": 334.1766,
        "meta_arg_of_pericenter": 302.5546,
        "meta_mean_anomaly": 21.1869,
        "meta_ephemeris_type": 0,
        "meta_classification_type": "U",
        "meta_norad_cat_id": 38356,
        "meta_element_set_no": 999,
        "meta_rev_at_epoch": 4863,
        "meta_bstar": 0,
        "meta_mean_motion_dot": -3.1e-07,
        "meta_mean_motion_ddot": 0,
        "tle_line1": "1 38356U 12030A   25352.12475243 -.00000031  00000+0  00000+0 0  9999",
        "tle_line2": "2 38356   0.0096 334.1766 0003173 302.5546  21.1869  1.00272137 48632"
      },
      "geometry": {
        "type": "Point",
        "coordinates": [
          130.29685824294836,
          0.017518914100362118
        ]
      }
    },
    {
      "type": "Feature",
      "properties": {
        "norad_id": 38740,
        "name": "INTELSAT 20 (IS-20)",
        "group": "intelsat",
        "lat": 0.0015317817032273792,
        "lon": 32.79921904836265,
        "alt_km": 35795.74181193758,
        "timestamp": "2025-12-18T15:47:10.888177+00:00",
        "meta_object_name": "INTELSAT 20 (IS-20)",
        "meta_object_id": "2012-043A",
        "meta_epoch": "2025-12-18T01:38:09.819744",
        "meta_mean_motion": 1.00272585,
        "meta_eccentricity": 0.00026462,
        "meta_inclination": 0.0238,
        "meta_ra_of_asc_node": 82.2967,
        "meta_arg_of_pericenter": 103.4668,
        "meta_mean_anomaly": 354.2234,
        "meta_ephemeris_type": 0,
        "meta_classification_type": "U",
        "meta_norad_cat_id": 38740,
        "meta_element_set_no": 999,
        "meta_rev_at_epoch": 4893,
        "meta_bstar": 0,
        "meta_mean_motion_dot": 0,
        "meta_mean_motion_ddot": 0,
        "tle_line1": "1 38740U 12043A   25352.06816921  .00000000  00000+0  00000+0 0  9990",
        "tle_line2": "2 38740   0.0238  82.2967 0002646 103.4668 354.2234  1.00272585 48934"
      },
      "geometry": {
        "type": "Point",
        "coordinates": [
          32.79921904836265,
          0.0015317817032273792
        ]
      }
    },
    {
      "type": "Feature",
      "properties": {
        "norad_id": 38749,
        "name": "INTELSAT 21 (IS-21)",
        "group": "intelsat",
        "lat": -0.02801870228556919,
        "lon": -93.70147472849554,
        "alt_km": 35779.33526681689,
        "timestamp": "2025-12-18T15:47:10.888189+00:00",
        "meta_object_name": "INTELSAT 21 (IS-21)",
        "meta_object_id": "2012-045A",
        "meta_epoch": "2025-12-18T06:10:14.216736",
        "meta_mean_motion": 1.00268834,
        "meta_eccentricity": 0.0001844,
        "meta_inclination": 0.031,
        "meta_ra_of_asc_node": 283.7071,
        "meta_arg_of_pericenter": 329.8226,
        "meta_mean_anomaly": 228.1491,
        "meta_ephemeris_type": 0,
        "meta_classification_type": "U",
        "meta_norad_cat_id": 38749,
        "meta_element_set_no": 999,
        "meta_rev_at_epoch": 4871,
        "meta_bstar": 0,
        "meta_mean_motion_dot": -2.6e-06,
        "meta_mean_motion_ddot": 0,
        "tle_line1": "1 38749U 12045A   25352.25710899 -.00000260  00000+0  00000+0 0  9998",
        "tle_line2": "2 38749   0.0310 283.7071 0001844 329.8226 228.1491  1.00268834 48713"
      },
      "geometry": {
        "type": "Point",
        "coordinates": [
          -93.70147472849554,
          -0.02801870228556919
        ]
      }
    }
  ]
}